[
  {
    "OBJECT_NAME": "STARLINK-32844",
    "OBJECT_ID": "25018Q",
    "EPOCH": "2025-11-11T05:52:20.950752",
    "MEAN_MOTION": 15.30239145,
    "ECCENTRICITY": 7.46e-05,
    "INCLINATION": 53.1636,
    "RA_OF_ASC_NODE": 139.7788,
    "ARG_OF_PERICENTER": 283.5138,
    "MEAN_ANOMALY": 76.578,
    "EPHEMERIS_TYPE": 0,
    "CLASSIFICATION_TYPE": "U",
    "NORAD_CAT_ID": 62820,
    "ELEMENT_SET_NO": 999,
    "REV_AT_EPOCH": 4503,
    "BSTAR": 0.0015068000000000002,
    "MEAN_MOTION_DOT": 0.00044591,
    "MEAN_MOTION_DDOT": 0.0,
    "TLE_LINE1": "1 62820U 25018Q   25315.24468693  .00044591  00000+0  15068-2 0  9996",
    "TLE_LINE2": "2 62820  53.1636 139.7788 0000746 283.5138  76.5780 15.30239145 45032",
    "COMMENT": "Grouped by shell and plane from TLE"
  },
  {
    "OBJECT_NAME": "STARLINK-32782",
    "OBJECT_ID": "25018R",
    "EPOCH": "2025-11-11T05:32:36.182112",
    "MEAN_MOTION": 15.30189106,
    "ECCENTRICITY": 0.0002504,
    "INCLINATION": 53.1523,
    "RA_OF_ASC_NODE": 139.6956,
    "ARG_OF_PERICENTER": 80.5203,
    "MEAN_ANOMALY": 279.608,
    "EPHEMERIS_TYPE": 0,
    "CLASSIFICATION_TYPE": "U",
    "NORAD_CAT_ID": 62821,
    "ELEMENT_SET_NO": 999,
    "REV_AT_EPOCH": 4504,
    "BSTAR": 0.001123,
    "MEAN_MOTION_DOT": 0.0003304,
    "MEAN_MOTION_DDOT": 0.0,
    "TLE_LINE1": "1 62821U 25018R   25315.23097433  .00033040  00000+0  11230-2 0  9990",
    "TLE_LINE2": "2 62821  53.1523 139.6956 0002504  80.5203 279.6080 15.30189106 45047",
    "COMMENT": "Grouped by shell and plane from TLE"
  },
  {
    "OBJECT_NAME": "STARLINK-32842",
    "OBJECT_ID": "25018S",
    "EPOCH": "2025-11-11T05:43:13.900512",
    "MEAN_MOTION": 15.30240804,
    "ECCENTRICITY": 1.83e-05,
    "INCLINATION": 53.1618,
    "RA_OF_ASC_NODE": 139.7417,
    "ARG_OF_PERICENTER": 83.8221,
    "MEAN_ANOMALY": 276.28,
    "EPHEMERIS_TYPE": 0,
    "CLASSIFICATION_TYPE": "U",
    "NORAD_CAT_ID": 62822,
    "ELEMENT_SET_NO": 999,
    "REV_AT_EPOCH": 4504,
    "BSTAR": 0.0015064,
    "MEAN_MOTION_DOT": 0.0004458,
    "MEAN_MOTION_DDOT": 0.0,
    "TLE_LINE1": "1 62822U 25018S   25315.23835533  .00044580  00000+0  15064-2 0  9992",
    "TLE_LINE2": "2 62822  53.1618 139.7417 0000183  83.8221 276.2800 15.30240804 45049",
    "COMMENT": "Grouped by shell and plane from TLE"
  },
  {
    "OBJECT_NAME": "STARLINK-32823",
    "OBJECT_ID": "25018T",
    "EPOCH": "2025-11-11T05:18:55.850400",
    "MEAN_MOTION": 15.30206398,
    "ECCENTRICITY": 0.0001682,
    "INCLINATION": 53.158,
    "RA_OF_ASC_NODE": 139.6355,
    "ARG_OF_PERICENTER": 89.7009,
    "MEAN_ANOMALY": 270.4185,
    "EPHEMERIS_TYPE": 0,
    "CLASSIFICATION_TYPE": "U",
    "NORAD_CAT_ID": 62823,
    "ELEMENT_SET_NO": 999,
    "REV_AT_EPOCH": 4504,
    "BSTAR": 0.0013452,
    "MEAN_MOTION_DOT": 0.00039704,
    "MEAN_MOTION_DDOT": 0.0,
    "TLE_LINE1": "1 62823U 25018T   25315.22147975  .00039704  00000+0  13452-2 0  9999",
    "TLE_LINE2": "2 62823  53.1580 139.6355 0001682  89.7009 270.4185 15.30206398 45044",
    "COMMENT": "Grouped by shell and plane from TLE"
  },
  {
    "OBJECT_NAME": "STARLINK-32825",
    "OBJECT_ID": "25018V",
    "EPOCH": "2025-11-10T19:24:58.347360",
    "MEAN_MOTION": 15.30207555,
    "ECCENTRICITY": 0.0001455,
    "INCLINATION": 53.1535,
    "RA_OF_ASC_NODE": 139.1938,
    "ARG_OF_PERICENTER": 81.9409,
    "MEAN_ANOMALY": 278.1756,
    "EPHEMERIS_TYPE": 0,
    "CLASSIFICATION_TYPE": "U",
    "NORAD_CAT_ID": 62825,
    "ELEMENT_SET_NO": 999,
    "REV_AT_EPOCH": 4500,
    "BSTAR": 0.0013507,
    "MEAN_MOTION_DOT": 0.00039868,
    "MEAN_MOTION_DDOT": 0.0,
    "TLE_LINE1": "1 62825U 25018V   25314.80900865  .00039868  00000+0  13507-2 0  9991",
    "TLE_LINE2": "2 62825  53.1535 139.1938 0001455  81.9409 278.1756 15.30207555 45005",
    "COMMENT": "Grouped by shell and plane from TLE"
  },
  {
    "OBJECT_NAME": "STARLINK-32704",
    "OBJECT_ID": "25018W",
    "EPOCH": "2025-11-11T05:49:19.038144",
    "MEAN_MOTION": 15.30239099,
    "ECCENTRICITY": 2.15e-05,
    "INCLINATION": 53.1653,
    "RA_OF_ASC_NODE": 139.7885,
    "ARG_OF_PERICENTER": 259.8262,
    "MEAN_ANOMALY": 100.2714,
    "EPHEMERIS_TYPE": 0,
    "CLASSIFICATION_TYPE": "U",
    "NORAD_CAT_ID": 62826,
    "ELEMENT_SET_NO": 999,
    "REV_AT_EPOCH": 4503,
    "BSTAR": 0.0015041,
    "MEAN_MOTION_DOT": 0.0004451,
    "MEAN_MOTION_DDOT": 0.0,
    "TLE_LINE1": "1 62826U 25018W   25315.24258146  .00044510  00000+0  15041-2 0  9994",
    "TLE_LINE2": "2 62826  53.1653 139.7885 0000215 259.8262 100.2714 15.30239099 45030",
    "COMMENT": "Grouped by shell and plane from TLE"
  },
  {
    "OBJECT_NAME": "STARLINK-32727",
    "OBJECT_ID": "25018Y",
    "EPOCH": "2025-11-10T18:53:03.115104",
    "MEAN_MOTION": 15.30239989,
    "ECCENTRICITY": 0.0001257,
    "INCLINATION": 53.1588,
    "RA_OF_ASC_NODE": 139.0586,
    "ARG_OF_PERICENTER": 85.4511,
    "MEAN_ANOMALY": 274.6634,
    "EPHEMERIS_TYPE": 0,
    "CLASSIFICATION_TYPE": "U",
    "NORAD_CAT_ID": 62828,
    "ELEMENT_SET_NO": 999,
    "REV_AT_EPOCH": 4595,
    "BSTAR": 0.00029904,
    "MEAN_MOTION_DOT": 8.519e-05,
    "MEAN_MOTION_DDOT": 0.0,
    "TLE_LINE1": "1 62828U 25018Y   25314.78684161  .00008519  00000+0  29904-3 0  9997",
    "TLE_LINE2": "2 62828  53.1588 139.0586 0001257  85.4511 274.6634 15.30239989 45953",
    "COMMENT": "Grouped by shell and plane from TLE"
  },
  {
    "OBJECT_NAME": "STARLINK-34269",
    "OBJECT_ID": "25127S",
    "EPOCH": "2025-11-10T20:02:31.008768",
    "MEAN_MOTION": 15.27615486,
    "ECCENTRICITY": 0.000192,
    "INCLINATION": 43.0025,
    "RA_OF_ASC_NODE": 130.6696,
    "ARG_OF_PERICENTER": 273.4298,
    "MEAN_ANOMALY": 86.6334,
    "EPHEMERIS_TYPE": 0,
    "CLASSIFICATION_TYPE": "U",
    "NORAD_CAT_ID": 64386,
    "ELEMENT_SET_NO": 999,
    "REV_AT_EPOCH": 2429,
    "BSTAR": 0.0015026,
    "MEAN_MOTION_DOT": 0.00041364,
    "MEAN_MOTION_DDOT": 0.0,
    "TLE_LINE1": "1 64386U 25127S   25314.83508112  .00041364  00000+0  15026-2 0  9990",
    "TLE_LINE2": "2 64386  43.0025 130.6696 0001920 273.4298  86.6334 15.27615486 24293",
    "COMMENT": "Grouped by shell and plane from TLE"
  },
  {
    "OBJECT_NAME": "STARLINK-34351",
    "OBJECT_ID": "25127T",
    "EPOCH": "2025-11-10T21:34:49.589184",
    "MEAN_MOTION": 15.27600277,
    "ECCENTRICITY": 0.0002078,
    "INCLINATION": 43.0024,
    "RA_OF_ASC_NODE": 130.2893,
    "ARG_OF_PERICENTER": 271.3058,
    "MEAN_ANOMALY": 88.7555,
    "EPHEMERIS_TYPE": 0,
    "CLASSIFICATION_TYPE": "U",
    "NORAD_CAT_ID": 64387,
    "ELEMENT_SET_NO": 999,
    "REV_AT_EPOCH": 2430,
    "BSTAR": 0.0016294,
    "MEAN_MOTION_DOT": 0.00044877,
    "MEAN_MOTION_DDOT": 0.0,
    "TLE_LINE1": "1 64387U 25127T   25314.89918506  .00044877  00000+0  16294-2 0  9999",
    "TLE_LINE2": "2 64387  43.0024 130.2893 0002078 271.3058  88.7555 15.27600277 24306",
    "COMMENT": "Grouped by shell and plane from TLE"
  },
  {
    "OBJECT_NAME": "STARLINK-34198",
    "OBJECT_ID": "25127U",
    "EPOCH": "2025-11-10T13:42:11.460672",
    "MEAN_MOTION": 15.27610816,
    "ECCENTRICITY": 0.0001727,
    "INCLINATION": 43.0002,
    "RA_OF_ASC_NODE": 132.1299,
    "ARG_OF_PERICENTER": 267.7259,
    "MEAN_ANOMALY": 92.3395,
    "EPHEMERIS_TYPE": 0,
    "CLASSIFICATION_TYPE": "U",
    "NORAD_CAT_ID": 64388,
    "ELEMENT_SET_NO": 999,
    "REV_AT_EPOCH": 2425,
    "BSTAR": 0.0011184,
    "MEAN_MOTION_DOT": 0.00030672,
    "MEAN_MOTION_DDOT": 0.0,
    "TLE_LINE1": "1 64388U 25127U   25314.57096598  .00030672  00000+0  11184-2 0  9994",
    "TLE_LINE2": "2 64388  43.0002 132.1299 0001727 267.7259  92.3395 15.27610816 24253",
    "COMMENT": "Grouped by shell and plane from TLE"
  },
  {
    "OBJECT_NAME": "STARLINK-34279",
    "OBJECT_ID": "25127V",
    "EPOCH": "2025-11-10T21:29:28.597632",
    "MEAN_MOTION": 15.27616824,
    "ECCENTRICITY": 0.000201,
    "INCLINATION": 43.0023,
    "RA_OF_ASC_NODE": 131.1333,
    "ARG_OF_PERICENTER": 275.1199,
    "MEAN_ANOMALY": 84.9423,
    "EPHEMERIS_TYPE": 0,
    "CLASSIFICATION_TYPE": "U",
    "NORAD_CAT_ID": 64389,
    "ELEMENT_SET_NO": 999,
    "REV_AT_EPOCH": 2429,
    "BSTAR": 0.0011211,
    "MEAN_MOTION_DOT": 0.00030752,
    "MEAN_MOTION_DDOT": 0.0,
    "TLE_LINE1": "1 64389U 25127V   25314.89546988  .00030752  00000+0  11211-2 0  9993",
    "TLE_LINE2": "2 64389  43.0023 131.1333 0002010 275.1199  84.9423 15.27616824 24295",
    "COMMENT": "Grouped by shell and plane from TLE"
  },
  {
    "OBJECT_NAME": "STARLINK-34292",
    "OBJECT_ID": "25127W",
    "EPOCH": "2025-11-10T13:07:14.821248",
    "MEAN_MOTION": 15.27600116,
    "ECCENTRICITY": 0.0001695,
    "INCLINATION": 43.0025,
    "RA_OF_ASC_NODE": 132.8138,
    "ARG_OF_PERICENTER": 269.5583,
    "MEAN_ANOMALY": 90.5074,
    "EPHEMERIS_TYPE": 0,
    "CLASSIFICATION_TYPE": "U",
    "NORAD_CAT_ID": 64390,
    "ELEMENT_SET_NO": 999,
    "REV_AT_EPOCH": 2424,
    "BSTAR": 0.0011982,
    "MEAN_MOTION_DOT": 0.00032876,
    "MEAN_MOTION_DDOT": 0.0,
    "TLE_LINE1": "1 64390U 25127W   25314.54669932  .00032876  00000+0  11982-2 0  9996",
    "TLE_LINE2": "2 64390  43.0025 132.8138 0001695 269.5583  90.5074 15.27600116 24249",
    "COMMENT": "Grouped by shell and plane from TLE"
  },
  {
    "OBJECT_NAME": "STARLINK-34278",
    "OBJECT_ID": "25127X",
    "EPOCH": "2025-11-10T21:40:22.426176",
    "MEAN_MOTION": 15.27601452,
    "ECCENTRICITY": 0.0001819,
    "INCLINATION": 43.0011,
    "RA_OF_ASC_NODE": 130.3193,
    "ARG_OF_PERICENTER": 275.6006,
    "MEAN_ANOMALY": 84.4638,
    "EPHEMERIS_TYPE": 0,
    "CLASSIFICATION_TYPE": "U",
    "NORAD_CAT_ID": 64391,
    "ELEMENT_SET_NO": 999,
    "REV_AT_EPOCH": 2430,
    "BSTAR": 0.0015122,
    "MEAN_MOTION_DOT": 0.00041613,
    "MEAN_MOTION_DDOT": 0.0,
    "TLE_LINE1": "1 64391U 25127X   25314.90303734  .00041613  00000+0  15122-2 0  9991",
    "TLE_LINE2": "2 64391  43.0011 130.3193 0001819 275.6006  84.4638 15.27601452 24304",
    "COMMENT": "Grouped by shell and plane from TLE"
  }
]